EZIE-A                  
1 63247U 25052AP  26068.97824436  .00008013  00000+0  71343-3 0  9993
2 63247  97.7004 322.7329 0003742 145.0909 215.0559 14.96303626 53828
STARLINK-36265          
1 67208U 25304S   26068.70424022 -.00012937  00000+0 -10792-2 0  9994
2 67208  70.0020 174.5517 0004447 251.0310 109.0367 14.98297439 13887
